ONEWEB-0342             
1 49208U 21083Y   25208.80878784  .00000062  00000+0  12048-3 0  9999
2 49208  87.9278 339.0625 0001952  95.1053 265.0303 13.20771430195264
ONEWEB-0343             
1 49209U 21083Z   25208.76455929  .00000044  00000+0  78845-4 0  9995
2 49209  87.9124  39.8944 0001658  69.2425 290.8884 13.18688518188579
ONEWEB-0344             
1 49210U 21083AA  25208.52711570 -.00000194  00000+0 -56648-3 0  9992
2 49210  87.8963  24.7771 0001386  85.1673 274.9614 13.13470060188279
ONEWEB-0345             
1 49211U 21083AB  25208.74718254 -.00000233  00000+0 -67314-3 0  9999
2 49211  87.8962  24.6851 0001340  84.6299 275.4983 13.13468772189616
ONEWEB-0346             
1 49212U 21083AC  25208.77362335  .00000003  00000+0 -24238-4 0  9991
2 49212  87.9125  39.9147 0001794 109.0547 251.0779 13.18686417188511
ONEWEB-0348             
1 49213U 21083AD  25208.42052912  .00000001  00000+0 -29598-4 0  9993
2 49213  87.9286 339.1501 0001377 111.6514 248.4766 13.20773016193943
ONEWEB-0350             
1 49214U 21083AE  25208.52795409 -.00000102  00000+0 -31499-3 0  9995
2 49214  87.8963  24.7201 0001476  88.0106 272.1192 13.13473015188313
ONEWEB-0351             
1 49215U 21083AF  25208.41408535  .00000052  00000+0  94984-4 0  9996
2 49215  87.9292 339.1339 0002195  76.0435 284.0943 13.20772593193904
ONEWEB-0352             
1 49216U 21083AG  25208.50849437 -.00000167  00000+0 -49312-3 0  9990
2 49216  87.8963  24.7654 0001991  78.2629 281.8723 13.13469317188407
ONEWEB-0354             
1 49217U 21083AH  25208.43946337  .00000035  00000+0  53073-4 0  9992
2 49217  87.9292 339.1277 0001568  99.2779 260.8532 13.20771086193944
ONEWEB-0355             
1 49218U 21083AJ  25208.53741279  .00000029  00000+0  44914-4 0  9999
2 49218  87.8966  24.7585 0001695  83.6693 276.4629 13.13471515188281
ONEWEB-0357             
1 49219U 21083AK  25208.89085146 -.00000030  00000+0 -10671-3 0  9999
2 49219  87.9284 339.0425 0001827  92.2026 267.9317 13.20770865195302
ONEWEB-0332             
1 49279U 21090A   25208.42404371 -.00000090  00000+0 -27648-3 0  9995
2 49279  87.9064 354.3409 0002052  92.1207 268.0157 13.14503609184919
ONEWEB-0347             
1 49280U 21090B   25208.35107938  .00000025  00000+0  28522-4 0  9997
2 49280  87.9291 339.1598 0002238  99.3084 260.8302 13.20771063188162
ONEWEB-0349             
1 49281U 21090C   25208.83719317  .00000069  00000+0  13682-3 0  9999
2 49281  87.9281 339.0679 0001813  95.1608 264.9732 13.20770196188309
ONEWEB-0353             
1 49282U 21090D   25208.41611352  .00000010  00000+0 -74777-5 0  9995
2 49282  87.9064 354.3294 0002081  94.6371 265.4996 13.14503507184915
ONEWEB-0356             
1 49283U 21090E   25208.83561002 -.00000025  00000+0 -93163-4 0  9994
2 49283  87.9284 339.0589 0002275 121.3447 238.7909 13.20771593188307
