[{"OBJECT_NAME":"ONEWEB-0342","OBJECT_ID":"2021-083Y","EPOCH":"2025-07-27T19:24:39.269376","MEAN_MOTION":13.2077143,"ECCENTRICITY":0.0001952,"INCLINATION":87.9278,"RA_OF_ASC_NODE":339.0625,"ARG_OF_PERICENTER":95.1053,"MEAN_ANOMALY":265.0303,"EPHEMERIS_TYPE":0,"CLASSIFICATION_TYPE":"U","NORAD_CAT_ID":49208,"ELEMENT_SET_NO":999,"REV_AT_EPOCH":19526,"BSTAR":0.00012048,"MEAN_MOTION_DOT":6.2e-7,"MEAN_MOTION_DDOT":0},{"OBJECT_NAME":"ONEWEB-0343","OBJECT_ID":"2021-083Z","EPOCH":"2025-07-27T18:20:57.922656","MEAN_MOTION":13.18688518,"ECCENTRICITY":0.0001658,"INCLINATION":87.9124,"RA_OF_ASC_NODE":39.8944,"ARG_OF_PERICENTER":69.2425,"MEAN_ANOMALY":290.8884,"EPHEMERIS_TYPE":0,"CLASSIFICATION_TYPE":"U","NORAD_CAT_ID":49209,"ELEMENT_SET_NO":999,"REV_AT_EPOCH":18857,"BSTAR":7.8845e-5,"MEAN_MOTION_DOT":4.4e-7,"MEAN_MOTION_DDOT":0},{"OBJECT_NAME":"ONEWEB-0344","OBJECT_ID":"2021-083AA","EPOCH":"2025-07-27T12:39:02.796480","MEAN_MOTION":13.1347006,"ECCENTRICITY":0.0001386,"INCLINATION":87.8963,"RA_OF_ASC_NODE":24.7771,"ARG_OF_PERICENTER":85.1673,"MEAN_ANOMALY":274.9614,"EPHEMERIS_TYPE":0,"CLASSIFICATION_TYPE":"U","NORAD_CAT_ID":49210,"ELEMENT_SET_NO":999,"REV_AT_EPOCH":18827,"BSTAR":-0.00056648,"MEAN_MOTION_DOT":-1.94e-6,"MEAN_MOTION_DDOT":0},{"OBJECT_NAME":"ONEWEB-0345","OBJECT_ID":"2021-083AB","EPOCH":"2025-07-27T17:55:56.571456","MEAN_MOTION":13.13468772,"ECCENTRICITY":0.000134,"INCLINATION":87.8962,"RA_OF_ASC_NODE":24.6851,"ARG_OF_PERICENTER":84.6299,"MEAN_ANOMALY":275.4983,"EPHEMERIS_TYPE":0,"CLASSIFICATION_TYPE":"U","NORAD_CAT_ID":49211,"ELEMENT_SET_NO":999,"REV_AT_EPOCH":18961,"BSTAR":-0.00067314,"MEAN_MOTION_DOT":-2.33e-6,"MEAN_MOTION_DDOT":0},{"OBJECT_NAME":"ONEWEB-0346","OBJECT_ID":"2021-083AC","EPOCH":"2025-07-27T18:34:01.057440","MEAN_MOTION":13.18686417,"ECCENTRICITY":0.0001794,"INCLINATION":87.9125,"RA_OF_ASC_NODE":39.9147,"ARG_OF_PERICENTER":109.0547,"MEAN_ANOMALY":251.0779,"EPHEMERIS_TYPE":0,"CLASSIFICATION_TYPE":"U","NORAD_CAT_ID":49212,"ELEMENT_SET_NO":999,"REV_AT_EPOCH":18851,"BSTAR":-2.4238e-5,"MEAN_MOTION_DOT":3.0e-8,"MEAN_MOTION_DDOT":0},{"OBJECT_NAME":"ONEWEB-0348","OBJECT_ID":"2021-083AD","EPOCH":"2025-07-27T10:05:33.715968","MEAN_MOTION":13.20773016,"ECCENTRICITY":0.0001377,"INCLINATION":87.9286,"RA_OF_ASC_NODE":339.1501,"ARG_OF_PERICENTER":111.6514,"MEAN_ANOMALY":248.4766,"EPHEMERIS_TYPE":0,"CLASSIFICATION_TYPE":"U","NORAD_CAT_ID":49213,"ELEMENT_SET_NO":999,"REV_AT_EPOCH":19394,"BSTAR":-2.9598e-5,"MEAN_MOTION_DOT":1.0e-8,"MEAN_MOTION_DDOT":0},{"OBJECT_NAME":"ONEWEB-0350","OBJECT_ID":"2021-083AE","EPOCH":"2025-07-27T12:40:15.233376","MEAN_MOTION":13.13473015,"ECCENTRICITY":0.0001476,"INCLINATION":87.8963,"RA_OF_ASC_NODE":24.7201,"ARG_OF_PERICENTER":88.0106,"MEAN_ANOMALY":272.1192,"EPHEMERIS_TYPE":0,"CLASSIFICATION_TYPE":"U","NORAD_CAT_ID":49214,"ELEMENT_SET_NO":999,"REV_AT_EPOCH":18831,"BSTAR":-0.00031499,"MEAN_MOTION_DOT":-1.02e-6,"MEAN_MOTION_DDOT":0},{"OBJECT_NAME":"ONEWEB-0351","OBJECT_ID":"2021-083AF","EPOCH":"2025-07-27T09:56:16.974240","MEAN_MOTION":13.20772593,"ECCENTRICITY":0.0002195,"INCLINATION":87.9292,"RA_OF_ASC_NODE":339.1339,"ARG_OF_PERICENTER":76.0435,"MEAN_ANOMALY":284.0943,"EPHEMERIS_TYPE":0,"CLASSIFICATION_TYPE":"U","NORAD_CAT_ID":49215,"ELEMENT_SET_NO":999,"REV_AT_EPOCH":19390,"BSTAR":9.4984e-5,"MEAN_MOTION_DOT":5.2e-7,"MEAN_MOTION_DDOT":0},{"OBJECT_NAME":"ONEWEB-0352","OBJECT_ID":"2021-083AG","EPOCH":"2025-07-27T12:12:13.913568","MEAN_MOTION":13.13469317,"ECCENTRICITY":0.0001991,"INCLINATION":87.8963,"RA_OF_ASC_NODE":24.7654,"ARG_OF_PERICENTER":78.2629,"MEAN_ANOMALY":281.8723,"EPHEMERIS_TYPE":0,"CLASSIFICATION_TYPE":"U","NORAD_CAT_ID":49216,"ELEMENT_SET_NO":999,"REV_AT_EPOCH":18840,"BSTAR":-0.00049312,"MEAN_MOTION_DOT":-1.67e-6,"MEAN_MOTION_DDOT":0},{"OBJECT_NAME":"ONEWEB-0354","OBJECT_ID":"2021-083AH","EPOCH":"2025-07-27T10:32:49.635168","MEAN_MOTION":13.20771086,"ECCENTRICITY":0.0001568,"INCLINATION":87.9292,"RA_OF_ASC_NODE":339.1277,"ARG_OF_PERICENTER":99.2779,"MEAN_ANOMALY":260.8532,"EPHEMERIS_TYPE":0,"CLASSIFICATION_TYPE":"U","NORAD_CAT_ID":49217,"ELEMENT_SET_NO":999,"REV_AT_EPOCH":19394,"BSTAR":5.3073e-5,"MEAN_MOTION_DOT":3.5e-7,"MEAN_MOTION_DDOT":0},{"OBJECT_NAME":"ONEWEB-0355","OBJECT_ID":"2021-083AJ","EPOCH":"2025-07-27T12:53:52.465056","MEAN_MOTION":13.13471515,"ECCENTRICITY":0.0001695,"INCLINATION":87.8966,"RA_OF_ASC_NODE":24.7585,"ARG_OF_PERICENTER":83.6693,"MEAN_ANOMALY":276.4629,"EPHEMERIS_TYPE":0,"CLASSIFICATION_TYPE":"U","NORAD_CAT_ID":49218,"ELEMENT_SET_NO":999,"REV_AT_EPOCH":18828,"BSTAR":4.4914e-5,"MEAN_MOTION_DOT":2.9e-7,"MEAN_MOTION_DDOT":0},{"OBJECT_NAME":"ONEWEB-0357","OBJECT_ID":"2021-083AK","EPOCH":"2025-07-27T21:22:49.566144","MEAN_MOTION":13.20770865,"ECCENTRICITY":0.0001827,"INCLINATION":87.9284,"RA_OF_ASC_NODE":339.0425,"ARG_OF_PERICENTER":92.2026,"MEAN_ANOMALY":267.9317,"EPHEMERIS_TYPE":0,"CLASSIFICATION_TYPE":"U","NORAD_CAT_ID":49219,"ELEMENT_SET_NO":999,"REV_AT_EPOCH":19530,"BSTAR":-0.00010671,"MEAN_MOTION_DOT":-3.0e-7,"MEAN_MOTION_DDOT":0},{"OBJECT_NAME":"ONEWEB-0332","OBJECT_ID":"2021-090A","EPOCH":"2025-07-27T10:10:37.376544","MEAN_MOTION":13.14503609,"ECCENTRICITY":0.0002052,"INCLINATION":87.9064,"RA_OF_ASC_NODE":354.3409,"ARG_OF_PERICENTER":92.1207,"MEAN_ANOMALY":268.0157,"EPHEMERIS_TYPE":0,"CLASSIFICATION_TYPE":"U","NORAD_CAT_ID":49279,"ELEMENT_SET_NO":999,"REV_AT_EPOCH":18491,"BSTAR":-0.00027648,"MEAN_MOTION_DOT":-9.0e-7,"MEAN_MOTION_DDOT":0},{"OBJECT_NAME":"ONEWEB-0347","OBJECT_ID":"2021-090B","EPOCH":"2025-07-27T08:25:33.258432","MEAN_MOTION":13.20771063,"ECCENTRICITY":0.0002238,"INCLINATION":87.9291,"RA_OF_ASC_NODE":339.1598,"ARG_OF_PERICENTER":99.3084,"MEAN_ANOMALY":260.8302,"EPHEMERIS_TYPE":0,"CLASSIFICATION_TYPE":"U","NORAD_CAT_ID":49280,"ELEMENT_SET_NO":999,"REV_AT_EPOCH":18816,"BSTAR":2.8522e-5,"MEAN_MOTION_DOT":2.5e-7,"MEAN_MOTION_DDOT":0},{"OBJECT_NAME":"ONEWEB-0349","OBJECT_ID":"2021-090C","EPOCH":"2025-07-27T20:05:33.489888","MEAN_MOTION":13.20770196,"ECCENTRICITY":0.0001813,"INCLINATION":87.9281,"RA_OF_ASC_NODE":339.0679,"ARG_OF_PERICENTER":95.1608,"MEAN_ANOMALY":264.9732,"EPHEMERIS_TYPE":0,"CLASSIFICATION_TYPE":"U","NORAD_CAT_ID":49281,"ELEMENT_SET_NO":999,"REV_AT_EPOCH":18830,"BSTAR":0.00013682,"MEAN_MOTION_DOT":6.9e-7,"MEAN_MOTION_DDOT":0},{"OBJECT_NAME":"ONEWEB-0353","OBJECT_ID":"2021-090D","EPOCH":"2025-07-27T09:59:12.208128","MEAN_MOTION":13.14503507,"ECCENTRICITY":0.0002081,"INCLINATION":87.9064,"RA_OF_ASC_NODE":354.3294,"ARG_OF_PERICENTER":94.6371,"MEAN_ANOMALY":265.4996,"EPHEMERIS_TYPE":0,"CLASSIFICATION_TYPE":"U","NORAD_CAT_ID":49282,"ELEMENT_SET_NO":999,"REV_AT_EPOCH":18491,"BSTAR":-7.4777e-6,"MEAN_MOTION_DOT":1.0e-7,"MEAN_MOTION_DDOT":0},{"OBJECT_NAME":"ONEWEB-0356","OBJECT_ID":"2021-090E","EPOCH":"2025-07-27T20:03:16.705728","MEAN_MOTION":13.20771593,"ECCENTRICITY":0.0002275,"INCLINATION":87.9284,"RA_OF_ASC_NODE":339.0589,"ARG_OF_PERICENTER":121.3447,"MEAN_ANOMALY":238.7909,"EPHEMERIS_TYPE":0,"CLASSIFICATION_TYPE":"U","NORAD_CAT_ID":49283,"ELEMENT_SET_NO":999,"REV_AT_EPOCH":18830,"BSTAR":-9.3163e-5,"MEAN_MOTION_DOT":-2.5e-7,"MEAN_MOTION_DDOT":0}]
